STARLINK-30367          
1 57791U 23134W   26068.40543344 -.00001439  00000+0 -43988-4 0  9995
2 57791  42.9993 196.0560 0001081 246.0553 114.0185 15.26733576139467
FLOCK 4G-24             
1 62637U 25009AE  26068.72509072  .00010513  00000+0  38996-3 0  9991
2 62637  97.4061 151.5140 0001802 280.2808  79.8228 15.27784978 63732
